ORBCOMM FM33 [-]        
1 25983U 99065D   23301.45204720  .00001496  00000+0  54825-3 0  9995
2 25983  45.0303 313.2419 0010622 293.7617 220.6695 14.36900876250082
ORBCOMM FM36 [-]        
1 25984U 99065E   23300.96322606  .00001923  00000+0  72152-3 0  9993
2 25984  45.0407  37.6832 0004772 192.1462 167.9271 14.34770540249007
ORBCOMM FM35 [+]        
1 25985U 99065F   23300.53864361  .00001358  00000+0  52723-3 0  9990
2 25985  45.0413  41.7980 0003951 264.0274  96.0123 14.34460338248753
ORBCOMM FM34 [-]        
1 25986U 99065G   23300.64250042  .00001333  00000+0  51893-3 0  9998
2 25986  45.0406  41.7869 0005121 223.7640 136.2801 14.34408916248880
ORBCOMM FM38 [-]        
1 33060U 08031A   23301.51378743  .00003230  00000+0  49042-3 0  9990
2 33060  48.4411 271.5361 0005779 355.9324   4.1541 14.76279423826297
ORBCOMM FM41 [-]        
1 33061U 08031B   23300.67750904  .00002648  00000+0  40964-3 0  9996
2 33061  48.4447 281.6713 0005083 338.4256 192.3223 14.76035407825689
ORBCOMM FM29 [-]        
1 33062U 08031C   23300.72101997  .00002739  00000+0  42376-3 0  9995
2 33062  48.4401 289.4513 0006991 337.7989 192.2323 14.75919638825606
ORBCOMM FM39 [-]        
1 33063U 08031D   23300.73593688  .00002211  00000+0  35467-3 0  9997
2 33063  48.4415 308.5385 0008052 315.4737  44.5528 14.75068404825327
